STARLINK-36772          
1 67721U 26026A   26069.83334490 -.01897013  00000+0 -49132-1 0  9996
2 67721  97.2854 124.3523 0001458  76.4486  25.2471 15.42321631  5490
STARLINK-36796          
1 67722U 26026B   26069.83334490 -.01862755  00000+0 -49751-1 0  9999
2 67722  97.2855 124.3461 0001606  71.9931   7.7702 15.41342219  5499
STARLINK-36369          
1 67723U 26026C   26069.83334490 -.01923380  00000+0 -46040-1 0  9990
2 67723  97.2856 124.3575 0001629  70.3273  43.6780 15.44692015  5506
STARLINK-36752          
1 67724U 26026D   26069.83334490 -.01922927  00000+0 -49343-1 0  9996
2 67724  97.2845 124.3721 0001897  56.2392  90.6250 15.42639377  5504
STARLINK-36754          
1 67725U 26026E   26069.83334490 -.01901159  00000+0 -47112-1 0  9993
2 67725  97.2855 124.3466 0001472  82.5791   5.7050 15.43637230  5508
STARLINK-36755          
1 67726U 26026F   26069.83334490  .00027014  00000+0  49743-3 0  9994
2 67726  97.2855 124.3246 0001558  88.2946 314.7908 15.49144003  5507
STARLINK-36741          
1 67727U 26026G   26069.83334490 -.02051681  00000+0 -47823-1 0  9991
2 67727  97.2854 124.3357 0001816  78.7905 354.1156 15.45687134  5502
STARLINK-36757          
1 67728U 26026H   26069.83334490 -.01898356  00000+0 -46716-1 0  9999
2 67728  97.2840 124.3920 0002081  63.8120 129.8372 15.43832144  5501
STARLINK-36751          
1 67729U 26026J   26069.83334490 -.01888604  00000+0 -46408-1 0  9993
2 67729  97.2848 124.4045 0001999  80.1906 143.0032 15.43859276  5506
STARLINK-36747          
1 67730U 26026K   26069.83334490 -.01909570  00000+0 -47158-1 0  9994
2 67730  97.2844 124.3992 0001922  73.8968 137.5024 15.43749343  5509
STARLINK-36315          
1 67731U 26026L   26069.83334490 -.01876188  00000+0 -45528-1 0  9992
2 67731  97.2851 124.4094 0001780  89.5678 145.4377 15.44208453  5508
STARLINK-36260          
1 67732U 26026M   26069.83334490 -.01893643  00000+0 -45826-1 0  9999
2 67732  97.2851 124.4170 0001935  82.8276 169.5928 15.44317934  5500
