CCSDS_OMM_VERS = 2.0
CREATION_DATE  = 
ORIGINATOR     = 

OBJECT_NAME    = STARLINK-36772
OBJECT_ID      = 2026-026A
CENTER_NAME    = EARTH
REF_FRAME      = TEME
TIME_SYSTEM    = UTC
MEAN_ELEMENT_THEORY = SGP/SGP4

EPOCH          = 2026-03-10T20:00:00.999360
MEAN_MOTION    = 15.42321631
ECCENTRICITY   = .0001458
INCLINATION    = 97.2854
RA_OF_ASC_NODE = 124.3523
ARG_OF_PERICENTER = 76.4486
MEAN_ANOMALY   = 25.2471

EPHEMERIS_TYPE = 0
CLASSIFICATION_TYPE = U
NORAD_CAT_ID   = 67721
ELEMENT_SET_NO = 999
REV_AT_EPOCH   = 549
BSTAR          = -.49132E-1
MEAN_MOTION_DOT = -.1897013E-1
MEAN_MOTION_DDOT = 0

CCSDS_OMM_VERS = 2.0
CREATION_DATE  = 
ORIGINATOR     = 

OBJECT_NAME    = STARLINK-36796
OBJECT_ID      = 2026-026B
CENTER_NAME    = EARTH
REF_FRAME      = TEME
TIME_SYSTEM    = UTC
MEAN_ELEMENT_THEORY = SGP/SGP4

EPOCH          = 2026-03-10T20:00:00.999360
MEAN_MOTION    = 15.41342219
ECCENTRICITY   = .0001606
INCLINATION    = 97.2855
RA_OF_ASC_NODE = 124.3461
ARG_OF_PERICENTER = 71.9931
MEAN_ANOMALY   = 7.7702

EPHEMERIS_TYPE = 0
CLASSIFICATION_TYPE = U
NORAD_CAT_ID   = 67722
ELEMENT_SET_NO = 999
REV_AT_EPOCH   = 549
BSTAR          = -.49751E-1
MEAN_MOTION_DOT = -.1862755E-1
MEAN_MOTION_DDOT = 0

CCSDS_OMM_VERS = 2.0
CREATION_DATE  = 
ORIGINATOR     = 

OBJECT_NAME    = STARLINK-36369
OBJECT_ID      = 2026-026C
CENTER_NAME    = EARTH
REF_FRAME      = TEME
TIME_SYSTEM    = UTC
MEAN_ELEMENT_THEORY = SGP/SGP4

EPOCH          = 2026-03-10T20:00:00.999360
MEAN_MOTION    = 15.44692015
ECCENTRICITY   = .0001629
INCLINATION    = 97.2856
RA_OF_ASC_NODE = 124.3575
ARG_OF_PERICENTER = 70.3273
MEAN_ANOMALY   = 43.6780

EPHEMERIS_TYPE = 0
CLASSIFICATION_TYPE = U
NORAD_CAT_ID   = 67723
ELEMENT_SET_NO = 999
REV_AT_EPOCH   = 550
BSTAR          = -.4604E-1
MEAN_MOTION_DOT = -.192338E-1
MEAN_MOTION_DDOT = 0

CCSDS_OMM_VERS = 2.0
CREATION_DATE  = 
ORIGINATOR     = 

OBJECT_NAME    = STARLINK-36752
OBJECT_ID      = 2026-026D
CENTER_NAME    = EARTH
REF_FRAME      = TEME
TIME_SYSTEM    = UTC
MEAN_ELEMENT_THEORY = SGP/SGP4

EPOCH          = 2026-03-10T20:00:00.999360
MEAN_MOTION    = 15.42639377
ECCENTRICITY   = .0001897
INCLINATION    = 97.2845
RA_OF_ASC_NODE = 124.3721
ARG_OF_PERICENTER = 56.2392
MEAN_ANOMALY   = 90.6250

EPHEMERIS_TYPE = 0
CLASSIFICATION_TYPE = U
NORAD_CAT_ID   = 67724
ELEMENT_SET_NO = 999
REV_AT_EPOCH   = 550
BSTAR          = -.49343E-1
MEAN_MOTION_DOT = -.1922927E-1
MEAN_MOTION_DDOT = 0

CCSDS_OMM_VERS = 2.0
CREATION_DATE  = 
ORIGINATOR     = 

OBJECT_NAME    = STARLINK-36754
OBJECT_ID      = 2026-026E
CENTER_NAME    = EARTH
REF_FRAME      = TEME
TIME_SYSTEM    = UTC
MEAN_ELEMENT_THEORY = SGP/SGP4

EPOCH          = 2026-03-10T20:00:00.999360
MEAN_MOTION    = 15.43637230
ECCENTRICITY   = .0001472
INCLINATION    = 97.2855
RA_OF_ASC_NODE = 124.3466
ARG_OF_PERICENTER = 82.5791
MEAN_ANOMALY   = 5.7050

EPHEMERIS_TYPE = 0
CLASSIFICATION_TYPE = U
NORAD_CAT_ID   = 67725
ELEMENT_SET_NO = 999
REV_AT_EPOCH   = 550
BSTAR          = -.47112E-1
MEAN_MOTION_DOT = -.1901159E-1
MEAN_MOTION_DDOT = 0

CCSDS_OMM_VERS = 2.0
CREATION_DATE  = 
ORIGINATOR     = 

OBJECT_NAME    = STARLINK-36755
OBJECT_ID      = 2026-026F
CENTER_NAME    = EARTH
REF_FRAME      = TEME
TIME_SYSTEM    = UTC
MEAN_ELEMENT_THEORY = SGP/SGP4

EPOCH          = 2026-03-10T20:00:00.999360
MEAN_MOTION    = 15.49144003
ECCENTRICITY   = .0001558
INCLINATION    = 97.2855
RA_OF_ASC_NODE = 124.3246
ARG_OF_PERICENTER = 88.2946
MEAN_ANOMALY   = 314.7908

EPHEMERIS_TYPE = 0
CLASSIFICATION_TYPE = U
NORAD_CAT_ID   = 67726
ELEMENT_SET_NO = 999
REV_AT_EPOCH   = 550
BSTAR          = .49743E-3
MEAN_MOTION_DOT = .27014E-3
MEAN_MOTION_DDOT = 0

CCSDS_OMM_VERS = 2.0
CREATION_DATE  = 
ORIGINATOR     = 

OBJECT_NAME    = STARLINK-36741
OBJECT_ID      = 2026-026G
CENTER_NAME    = EARTH
REF_FRAME      = TEME
TIME_SYSTEM    = UTC
MEAN_ELEMENT_THEORY = SGP/SGP4

EPOCH          = 2026-03-10T20:00:00.999360
MEAN_MOTION    = 15.45687134
ECCENTRICITY   = .0001816
INCLINATION    = 97.2854
RA_OF_ASC_NODE = 124.3357
ARG_OF_PERICENTER = 78.7905
MEAN_ANOMALY   = 354.1156

EPHEMERIS_TYPE = 0
CLASSIFICATION_TYPE = U
NORAD_CAT_ID   = 67727
ELEMENT_SET_NO = 999
REV_AT_EPOCH   = 550
BSTAR          = -.47823E-1
MEAN_MOTION_DOT = -.2051681E-1
MEAN_MOTION_DDOT = 0

CCSDS_OMM_VERS = 2.0
CREATION_DATE  = 
ORIGINATOR     = 

OBJECT_NAME    = STARLINK-36757
OBJECT_ID      = 2026-026H
CENTER_NAME    = EARTH
REF_FRAME      = TEME
TIME_SYSTEM    = UTC
MEAN_ELEMENT_THEORY = SGP/SGP4

EPOCH          = 2026-03-10T20:00:00.999360
MEAN_MOTION    = 15.43832144
ECCENTRICITY   = .0002081
INCLINATION    = 97.2840
RA_OF_ASC_NODE = 124.3920
ARG_OF_PERICENTER = 63.8120
MEAN_ANOMALY   = 129.8372

EPHEMERIS_TYPE = 0
CLASSIFICATION_TYPE = U
NORAD_CAT_ID   = 67728
ELEMENT_SET_NO = 999
REV_AT_EPOCH   = 550
BSTAR          = -.46716E-1
MEAN_MOTION_DOT = -.1898356E-1
MEAN_MOTION_DDOT = 0

CCSDS_OMM_VERS = 2.0
CREATION_DATE  = 
ORIGINATOR     = 

OBJECT_NAME    = STARLINK-36751
OBJECT_ID      = 2026-026J
CENTER_NAME    = EARTH
REF_FRAME      = TEME
TIME_SYSTEM    = UTC
MEAN_ELEMENT_THEORY = SGP/SGP4

EPOCH          = 2026-03-10T20:00:00.999360
MEAN_MOTION    = 15.43859276
ECCENTRICITY   = .0001999
INCLINATION    = 97.2848
RA_OF_ASC_NODE = 124.4045
ARG_OF_PERICENTER = 80.1906
MEAN_ANOMALY   = 143.0032

EPHEMERIS_TYPE = 0
CLASSIFICATION_TYPE = U
NORAD_CAT_ID   = 67729
ELEMENT_SET_NO = 999
REV_AT_EPOCH   = 550
BSTAR          = -.46408E-1
MEAN_MOTION_DOT = -.1888604E-1
MEAN_MOTION_DDOT = 0

CCSDS_OMM_VERS = 2.0
CREATION_DATE  = 
ORIGINATOR     = 

OBJECT_NAME    = STARLINK-36747
OBJECT_ID      = 2026-026K
CENTER_NAME    = EARTH
REF_FRAME      = TEME
TIME_SYSTEM    = UTC
MEAN_ELEMENT_THEORY = SGP/SGP4

EPOCH          = 2026-03-10T20:00:00.999360
MEAN_MOTION    = 15.43749343
ECCENTRICITY   = .0001922
INCLINATION    = 97.2844
RA_OF_ASC_NODE = 124.3992
ARG_OF_PERICENTER = 73.8968
MEAN_ANOMALY   = 137.5024

EPHEMERIS_TYPE = 0
CLASSIFICATION_TYPE = U
NORAD_CAT_ID   = 67730
ELEMENT_SET_NO = 999
REV_AT_EPOCH   = 550
BSTAR          = -.47158E-1
MEAN_MOTION_DOT = -.190957E-1
MEAN_MOTION_DDOT = 0

CCSDS_OMM_VERS = 2.0
CREATION_DATE  = 
ORIGINATOR     = 

OBJECT_NAME    = STARLINK-36315
OBJECT_ID      = 2026-026L
CENTER_NAME    = EARTH
REF_FRAME      = TEME
TIME_SYSTEM    = UTC
MEAN_ELEMENT_THEORY = SGP/SGP4

EPOCH          = 2026-03-10T20:00:00.999360
MEAN_MOTION    = 15.44208453
ECCENTRICITY   = .000178
INCLINATION    = 97.2851
RA_OF_ASC_NODE = 124.4094
ARG_OF_PERICENTER = 89.5678
MEAN_ANOMALY   = 145.4377

EPHEMERIS_TYPE = 0
CLASSIFICATION_TYPE = U
NORAD_CAT_ID   = 67731
ELEMENT_SET_NO = 999
REV_AT_EPOCH   = 550
BSTAR          = -.45528E-1
MEAN_MOTION_DOT = -.1876188E-1
MEAN_MOTION_DDOT = 0

CCSDS_OMM_VERS = 2.0
CREATION_DATE  = 
ORIGINATOR     = 

OBJECT_NAME    = STARLINK-36260
OBJECT_ID      = 2026-026M
CENTER_NAME    = EARTH
REF_FRAME      = TEME
TIME_SYSTEM    = UTC
MEAN_ELEMENT_THEORY = SGP/SGP4

EPOCH          = 2026-03-10T20:00:00.999360
MEAN_MOTION    = 15.44317934
ECCENTRICITY   = .0001935
INCLINATION    = 97.2851
RA_OF_ASC_NODE = 124.4170
ARG_OF_PERICENTER = 82.8276
MEAN_ANOMALY   = 169.5928

EPHEMERIS_TYPE = 0
CLASSIFICATION_TYPE = U
NORAD_CAT_ID   = 67732
ELEMENT_SET_NO = 999
REV_AT_EPOCH   = 550
BSTAR          = -.45826E-1
MEAN_MOTION_DOT = -.1893643E-1
MEAN_MOTION_DDOT = 0

